EYESAT-1 (AO-27)        
1 22825U 93061C   17202.12798365 -.00000016  00000-0  11445-4 0  9998
2 22825  98.8147 168.1319 0007502 227.6444 132.4103 14.30000890241983
CUTE-1 (CO-55)          
1 27844U 03031E   17202.27063750  .00000050  00000-0  42573-4 0  9994
2 27844  98.6891 210.7809 0008558 246.3427 113.6852 14.22048031729121
CUBESAT XI-IV (CO-57)   
1 27848U 03031J   17201.99813183  .00000041  00000-0  38835-4 0  9995
2 27848  98.6984 210.7856 0008438 257.9827 102.0405 14.21661562728976
CUBESAT XI 5            
1 28895U 05043F   17202.15575458  .00000121  00000-0  32036-4 0  9998
2 28895  97.8683   2.8875 0017718  40.2726 319.9786 14.63412235625456
CUTE-1.7+APD II (CO-65) 
1 32785U 08021C   17202.00246768  .00000259  00000-0  33916-4 0  9993
2 32785  97.5650 224.7288 0014515  60.2167 300.0491 14.87909395499857
COMPASS-1               
1 32787U 08021E   17202.07069325  .00000269  00000-0  31298-4 0  9996
2 32787  97.5578 233.8744 0013355  32.0565 328.1464 14.92635277500503
AAUSAT-II               
1 32788U 08021F   17202.05917696  .00000564  00000-0  58064-4 0  9996
2 32788  97.5567 236.7644 0012547  25.0122 335.1704 14.93910928500736
DELFI-C3 (DO-64)        
1 32789U 08021G   17202.13442128  .00000863  00000-0  65061-4 0  9996
2 32789  97.5566 259.6483 0012394 354.2442   5.8640 15.04967603501874
CANX-2                  
1 32790U 08021H   17201.98842741  .00000222  00000-0  30077-4 0  9993
2 32790  97.5630 223.0680 0015227  61.6055 298.6695 14.87634310499783
SEEDS II (CO-66)        
1 32791U 08021J   17202.01792972  .00000447  00000-0  51398-4 0  9997
2 32791  97.5617 229.2127 0014562  45.9051 314.3363 14.90251281500108
SWISSCUBE               
1 35932U 09051B   17202.08399859  .00000112  00000-0  36343-4 0  9997
2 35932  98.5002 341.2026 0008539 140.5702 219.6118 14.56027149415210
BEESAT                  
1 35933U 09051C   17201.38041170  .00000122  00000-0  38593-4 0  9990
2 35933  98.5039 341.8183 0006477 152.4746 207.6795 14.56145160415177
ITUPSAT 1               
1 35935U 09051E   17201.79941430  .00000088  00000-0  31403-4 0  9999
2 35935  98.5152 342.4994 0008877 148.2694 211.9039 14.55337747415096
TISAT 1                 
1 36799U 10035E   17202.24946719  .00000292  00000-0  36024-4 0  9999
2 36799  98.0656 325.6731 0011790 209.3783 150.6772 14.90424099380659
M-CUBED & EXP-1 PRIME   
1 37855U 11061F   17202.21004447  .00001087  00000-0  64904-4 0  9994
2 37855 101.7119  90.9237 0180366 341.1601  18.2992 15.03162113311436
HORYU 2                 
1 38340U 12025D   17202.20135202  .00000180  00000-0  34606-4 0  9997
2 38340  98.3766 207.3216 0011634 177.1749 182.9527 14.75357511267896
STRAND-1                
1 39090U 13009E   17202.11900633  .00000035  00000-0  27748-4 0  9999
2 39090  98.5516  47.2337 0008814 192.5332 167.5636 14.34974189230323
BRITE-AUSTRIA           
1 39091U 13009F   17202.13179376  .00000018  00000-0  21593-4 0  9997
2 39091  98.5480  46.6225 0009992 201.3757 158.7013 14.35033926230351
UNIBRITE                
1 39092U 13009G   17202.20385344  .00000019  00000-0  22269-4 0  9992
2 39092  98.5488  46.3812 0009005 193.5768 166.5176 14.34908399230348
AIST-2                  
1 39133U 13015D   17202.20689525  .00000135  00000-0  22237-4 0  9997
2 39133  64.8724 178.0431 0038111 276.5147  83.1634 15.04305967233410
SOMP                    
1 39134U 13015E   17202.21509844  .00000694  00000-0  43499-4 0  9997
2 39134  64.8663 116.6207 0037398 259.7742  99.9166 15.17887005234645
BEESAT-2                
1 39136U 13015G   17202.16918944  .00001160  00000-0  71205-4 0  9993
2 39136  64.8701 127.9320 0033162 278.8554  80.8817 15.15158770234425
NEE-01 PEGASUS          
1 39151U 13018B   17202.18322376  .00000143  00000-0  26105-4 0  9992
2 39151  97.9841 293.4889 0015869 302.7229  57.2452 14.79731921228568
CUBEBUG-1 (CAPITAN BETO)
1 39153U 13018D   17202.23018687  .00000138  00000-0  25231-4 0  9990
2 39153  97.9863 294.3464 0015750 300.6780  59.2879 14.80195240228623
ESTCUBE 1               
1 39161U 13021C   17202.18888954  .00000182  00000-0  37025-4 0  9992
2 39161  98.0282 287.7491 0010430  42.4506 317.7521 14.71911120225752
POPACS 1                
1 39268U 13055D   17201.78453712  .00005998  00000-0  17025-3 0  9999
2 39268  81.0045 333.1248 0651110 121.0925 245.5830 14.31228475196994
POPACS 2                
1 39269U 13055E   17202.09923770  .00004476  00000-0  13111-3 0  9993
2 39269  81.0170 348.2238 0700782 160.4364 202.5223 14.20077341194892
POPACS 3                
1 39270U 13055F   17202.17352497  .00001672  00000-0  52313-4 0  9999
2 39270  81.0181 356.5867 0725139 185.8475 173.3893 14.13261180174875
FIREFLY                 
1 39404U 13064AA  17202.06354451  .00037769  00000-0  20691-3 0  9997
2 39404  40.4977  88.7278 0009773 299.1908  60.7943 15.78929357203018
ZACUBE-1 (TSHEPISOSAT)  
1 39417U 13066B   17202.08359626  .00000235  00000-0  36166-4 0  9997
2 39417  97.6270 242.6792 0059982 157.7612 202.6223 14.80726963197797
WNISAT-1                
1 39423U 13066H   17202.08662615  .00000151  00000-0  39962-4 0  9993
2 39423  97.6847 187.6548 0175428 332.6807  26.5251 14.52854006194155
TRITON-1                
1 39427U 13066M   17202.01029015  .00000187  00000-0  38241-4 0  9999
2 39427  97.6372 215.1007 0112965 240.0486 118.9466 14.67475281195819
GOMX 1                  
1 39430U 13066Q   17202.05375501  .00000183  00000-0  42707-4 0  9999
2 39430  97.6659 198.5100 0150505 296.3990  62.1830 14.58885728194865
BRITE-PL                
1 39431U 13066R   17201.86701264  .00000097  00000-0  30803-4 0  9995
2 39431  97.7086 176.6391 0203041  11.8888 348.6996 14.46852316193127
HUMSAT-D                
1 39433U 13066T   17202.13530336  .00000541  00000-0  59066-4 0  9994
2 39433  97.6501 264.2500 0032758 103.8612 256.6255 14.91466495199073
EAGLE 2                 
1 39436U 13066W   17202.22743423  .00013350  00000-0  35492-3 0  9998
2 39436  97.7107 309.8661 0009155 322.8361  37.2249 15.38338491201887
CUBEBUG-2 (LO-74)       
1 39440U 13066AA  17202.08548989  .00000213  00000-0  36879-4 0  9992
2 39440  97.6268 231.5923 0080551 189.3316 170.6403 14.75467310195896
NEE-02 KRYSAOR          
1 39441U 13066AB  17202.04417562  .00000147  00000-0  28106-4 0  9991
2 39441  97.6250 230.2133 0081810 193.1867 166.7205 14.74630438196978
FUNCUBE-1 (AO-73)       
1 39444U 13066AE  17202.11401377  .00000313  00000-0  45322-4 0  9993
2 39444  97.6286 243.8054 0059252 154.3105 206.1073 14.81464015196630
UWE-3                   
1 39446U 13066AG  17202.06597377  .00000225  00000-0  36839-4 0  9990
2 39446  97.6258 236.8239 0070687 173.8878 186.3213 14.78000679196202
BRITE-TORONTO           
1 40020U 14033L   17202.22202724  .00000088  00000-0  23774-4 0  9993
2 40020  97.8314  71.4666 0086666 218.0301 141.4766 14.66400072165075
DUCHIFAT-1              
1 40021U 14033M   17202.21419734  .00000288  00000-0  35806-4 0  9995
2 40021  97.9169 115.4277 0012770 182.6303 177.4849 14.89917702167661
FLOCK 1C-10             
1 40023U 14033P   17202.20633955  .00001077  00000-0  12113-3 0  9991
2 40023  97.9177 114.4483 0012143 190.7806 169.3102 14.88753162167560
NANOSATC-BR1            
1 40024U 14033Q   17202.23171226  .00000338  00000-0  41659-4 0  9990
2 40024  97.9126 114.2793 0012035 183.6129 176.5003 14.89239518167099
QB50P1                  
1 40025U 14033R   17202.22945265  .00000251  00000-0  33072-4 0  9996
2 40025  97.9106 113.2683 0012191 186.9047 173.2004 14.88439429167045
FLOCK 1C-7              
1 40026U 14033S   17202.20637278  .00001072  00000-0  11842-3 0  9999
2 40026  97.9203 115.2152 0010544 186.7785 173.3309 14.89488786167617
FLOCK 1C-1              
1 40027U 14033T   17202.17291062  .00000460  00000-0  55093-4 0  9990
2 40027  97.9206 114.6516 0012201 188.3842 171.7170 14.88809465167575
POPSAT-HIP-1            
1 40028U 14033U   17202.19673844  .00000540  00000-0  64372-4 0  9994
2 40028  97.9146 113.5188 0013568 185.8034 174.3053 14.88310515167532
FLOCK 1C-2              
1 40029U 14033V   17202.20135376  .00001024  00000-0  11524-3 0  9998
2 40029  97.9172 114.5347 0013551 184.0459 176.0686 14.88831160167562
FLOCK 1C-4              
1 40031U 14033X   17202.22114385  .00000799  00000-0  91527-4 0  9990
2 40031  97.9180 114.5319 0014018 182.2248 177.8776 14.88678498167559
QB50P2                  
1 40032U 14033Y   17202.21975712  .00000227  00000-0  30772-4 0  9990
2 40032  97.9079 112.3430 0011732 181.4146 178.7039 14.87996844167509
FLOCK 1C-11             
1 40033U 14033Z   17202.17804786  .00000058  00000-0  11912-4 0  9995
2 40033  97.9214 115.9682 0011850 175.4956 184.6376 14.90182120167656
ANTELSAT                
1 40034U 14033AA  17202.23243412  .00000173  00000-0  33487-4 0  9995
2 40034  97.8549  85.1029 0058843 182.0302 178.0677 14.73713352165402
FLOCK 1C-9              
1 40035U 14033AB  17202.18887803  .00000706  00000-0  81262-4 0  9994
2 40035  97.9226 114.8991 0011421 176.3260 183.8063 14.88883022167564
FLOCK 1C-6              
1 40036U 14033AC  17202.20744619  .00001068  00000-0  11948-3 0  9990
2 40036  97.9225 115.1334 0011505 176.8775 183.2558 14.88992930167582
PERSEUS-M2              
1 40037U 14033AD  17202.26077894  .00000092  00000-0  16746-4 0  9999
2 40037  97.9097 110.8535 0014147 188.4291 171.6689 14.86235186166870
FLOCK 1C-5              
1 40038U 14033AE  17202.21494925  .00000928  00000-0  10460-3 0  9997
2 40038  97.9224 114.9454 0013846 177.1137 183.0140 14.88979355167579
PERSEUS-M1              
1 40039U 14033AF  17202.20181326  .00000086  00000-0  16157-4 0  9990
2 40039  97.9104 110.3411 0014080 184.5463 175.5626 14.85859454166810
FLOCK 1C-8              
1 40040U 14033AG  17202.22854787  .00000812  00000-0  88021-4 0  9998
2 40040  97.9254 117.1647 0012701 163.5520 196.6087 14.90923343167702
